start=new Date('2023-02-28T00:00:00.000Z').valueOf();
sats=[{"NORAD_CAT_ID":"53991","CENTER_NAME":"EARTH","MEAN_ELEMENT_THEORY":"SGP4","REF_FRAME":"TEME","BSTAR":"0.00003620000000","MEAN_MOTION_DOT":"0.00000268","OBJECT_ID":"2022-125AD","MEAN_MOTION_DDOT":"0.0000000000000","OBJECT_NAME":"STARLINK-5118","RCS_SIZE":"LARGE","GP_ID":"227198126","LAUNCH_DATE":"2022-10-05","PERIAPSIS":"543.795","CLASSIFICATION_TYPE":"U","REV_AT_EPOCH":"2269","OBJECT_TYPE":"PAYLOAD","INCLINATION":"53.2217","ARG_OF_PERICENTER":"96.3806","EPHEMERIS_TYPE":"0","COUNTRY_CODE":"US","APOAPSIS":"545.689","TLE_LINE2":"2 53991  53.2217 125.3808 0001368  96.3806 263.7341 15.07206849 22693","MEAN_MOTION":"15.07206849","TIME_SYSTEM":"UTC","ELEMENT_SET_NO":"999","EPOCH":"2023-02-27T20:56:27.641760","ECCENTRICITY":"0.00013680","FILE":"3846812","DECAY_DATE":null,"MEAN_ANOMALY":"263.7341","SITE":"AFWTR","TLE_LINE1":"1 53991U 22125AD  23058.87254215  .00000268  00000-0  36200-4 0  9992","SEMIMAJOR_AXIS":"6922.877","RA_OF_ASC_NODE":"125.3808","PERIOD":"95.541"},{"PERIOD":"95.433","TLE_LINE1":"1 53992U 22125AE  23058.68625963  .00080789  00000-0  50277-2 0  9998","SEMIMAJOR_AXIS":"6917.683","RA_OF_ASC_NODE":"139.1600","MEAN_ANOMALY":"251.6607","SITE":"AFWTR","FILE":"3846812","DECAY_DATE":null,"ECCENTRICITY":"0.00013060","TIME_SYSTEM":"UTC","ELEMENT_SET_NO":"999","EPOCH":"2023-02-27T16:28:12.832032","TLE_LINE2":"2 53992  53.2134 139.1600 0001306 108.4527 251.6607 15.08904432 22484","MEAN_MOTION":"15.08904432","EPHEMERIS_TYPE":"0","COUNTRY_CODE":"US","APOAPSIS":"540.452","REV_AT_EPOCH":"2248","OBJECT_TYPE":"PAYLOAD","INCLINATION":"53.2134","ARG_OF_PERICENTER":"108.4527","CLASSIFICATION_TYPE":"U","LAUNCH_DATE":"2022-10-05","PERIAPSIS":"538.645","GP_ID":"227197877","RCS_SIZE":"LARGE","OBJECT_NAME":"STARLINK-5108","MEAN_MOTION_DOT":"0.00080789","OBJECT_ID":"2022-125AE","MEAN_MOTION_DDOT":"0.0000000000000","CENTER_NAME":"EARTH","REF_FRAME":"TEME","MEAN_ELEMENT_THEORY":"SGP4","BSTAR":"0.00502770000000","NORAD_CAT_ID":"53992"},{"PERIOD":"95.437","TLE_LINE1":"1 53993U 22125AF  23058.59653006  .00002691  00000-0  18707-3 0  9997","RA_OF_ASC_NODE":"134.3149","SEMIMAJOR_AXIS":"6917.845","MEAN_ANOMALY":"266.7776","SITE":"AFWTR","FILE":"3846812","DECAY_DATE":null,"ECCENTRICITY":"0.00014550","EPOCH":"2023-02-27T14:19:00.197184","ELEMENT_SET_NO":"999","TIME_SYSTEM":"UTC","TLE_LINE2":"2 53993  53.2176 134.3149 0001455  93.3383 266.7776 15.08851481 22549","MEAN_MOTION":"15.08851481","APOAPSIS":"540.717","EPHEMERIS_TYPE":"0","COUNTRY_CODE":"US","OBJECT_TYPE":"PAYLOAD","REV_AT_EPOCH":"2254","ARG_OF_PERICENTER":"93.3383","INCLINATION":"53.2176","CLASSIFICATION_TYPE":"U","LAUNCH_DATE":"2022-10-05","PERIAPSIS":"538.704","GP_ID":"227196625","RCS_SIZE":"LARGE","OBJECT_NAME":"STARLINK-5121","MEAN_MOTION_DOT":"0.00002691","MEAN_MOTION_DDOT":"0.0000000000000","OBJECT_ID":"2022-125AF","MEAN_ELEMENT_THEORY":"SGP4","CENTER_NAME":"EARTH","REF_FRAME":"TEME","BSTAR":"0.00018707000000","NORAD_CAT_ID":"53993"},{"APOAPSIS":"540.973","EPHEMERIS_TYPE":"0","COUNTRY_CODE":"US","TLE_LINE2":"2 53994  53.2141 139.3919 0001782  87.0589 273.0607 15.08841725 22480","MEAN_MOTION":"15.08841725","ELEMENT_SET_NO":"999","EPOCH":"2023-02-27T14:36:55.414080","TIME_SYSTEM":"UTC","ECCENTRICITY":"0.00017820","FILE":"3846812","DECAY_DATE":null,"MEAN_ANOMALY":"273.0607","SITE":"AFWTR","TLE_LINE1":"1 53994U 22125AG  23058.60897470  .00002157  00000-0  15358-3 0  9991","RA_OF_ASC_NODE":"139.3919","SEMIMAJOR_AXIS":"6917.875","PERIOD":"95.437","NORAD_CAT_ID":"53994","CENTER_NAME":"EARTH","MEAN_ELEMENT_THEORY":"SGP4","REF_FRAME":"TEME","BSTAR":"0.00015358000000","MEAN_MOTION_DOT":"0.00002157","MEAN_MOTION_DDOT":"0.0000000000000","OBJECT_ID":"2022-125AG","OBJECT_NAME":"STARLINK-5125","RCS_SIZE":"LARGE","GP_ID":"227196875","PERIAPSIS":"538.507","LAUNCH_DATE":"2022-10-05","CLASSIFICATION_TYPE":"U","OBJECT_TYPE":"PAYLOAD","REV_AT_EPOCH":"2248","ARG_OF_PERICENTER":"87.0589","INCLINATION":"53.2141"},{"DECAY_DATE":null,"FILE":"3846812","SITE":"AFWTR","MEAN_ANOMALY":"288.7490","RA_OF_ASC_NODE":"138.2459","SEMIMAJOR_AXIS":"6917.885","TLE_LINE1":"1 53995U 22125AH  23058.88130322  .00006068  00000-0  39903-3 0  9995","PERIOD":"95.438","APOAPSIS":"540.595","EPHEMERIS_TYPE":"0","COUNTRY_CODE":"US","MEAN_MOTION":"15.08838481","TLE_LINE2":"2 53995  53.2133 138.2459 0001221  71.3634 288.7490 15.08838481 22516","EPOCH":"2023-02-27T21:09:04.598208","ELEMENT_SET_NO":"999","TIME_SYSTEM":"UTC","ECCENTRICITY":"0.00012210","GP_ID":"227197627","RCS_SIZE":"LARGE","PERIAPSIS":"538.905","LAUNCH_DATE":"2022-10-05","CLASSIFICATION_TYPE":"U","ARG_OF_PERICENTER":"71.3634","INCLINATION":"53.2133","OBJECT_TYPE":"PAYLOAD","REV_AT_EPOCH":"2251","NORAD_CAT_ID":"53995","BSTAR":"0.00039903000000","MEAN_ELEMENT_THEORY":"SGP4","CENTER_NAME":"EARTH","REF_FRAME":"TEME","MEAN_MOTION_DDOT":"0.0000000000000","OBJECT_ID":"2022-125AH","MEAN_MOTION_DOT":"0.00006068","OBJECT_NAME":"STARLINK-5097"},{"SITE":"AFWTR","MEAN_ANOMALY":"276.2629","DECAY_DATE":null,"FILE":"3846812","PERIOD":"95.437","RA_OF_ASC_NODE":"139.3706","SEMIMAJOR_AXIS":"6917.877","TLE_LINE1":"1 53996U 22125AJ  23058.60529099  .00003150  00000-0  21590-3 0  9991","MEAN_MOTION":"15.08841093","TLE_LINE2":"2 53996  53.2140 139.3706 0001628  83.8548 276.2629 15.08841093 22480","APOAPSIS":"540.868","EPHEMERIS_TYPE":"0","COUNTRY_CODE":"US","ECCENTRICITY":"0.00016280","ELEMENT_SET_NO":"999","EPOCH":"2023-02-27T14:31:37.141536","TIME_SYSTEM":"UTC","LAUNCH_DATE":"2022-10-05","PERIAPSIS":"538.616","GP_ID":"227198377","RCS_SIZE":"LARGE","INCLINATION":"53.2140","ARG_OF_PERICENTER":"83.8548","OBJECT_TYPE":"PAYLOAD","REV_AT_EPOCH":"2248","CLASSIFICATION_TYPE":"U","BSTAR":"0.00021590000000","CENTER_NAME":"EARTH","REF_FRAME":"TEME","MEAN_ELEMENT_THEORY":"SGP4","NORAD_CAT_ID":"53996","OBJECT_NAME":"STARLINK-5131","MEAN_MOTION_DDOT":"0.0000000000000","OBJECT_ID":"2022-125AJ","MEAN_MOTION_DOT":"0.00003150"},{"ELEMENT_SET_NO":"999","EPOCH":"2023-02-27T21:42:14.114592","TIME_SYSTEM":"UTC","ECCENTRICITY":"0.00011520","APOAPSIS":"540.522","COUNTRY_CODE":"US","EPHEMERIS_TYPE":"0","MEAN_MOTION":"15.08846772","TLE_LINE2":"2 53997  53.2210 128.4059 0001152 101.7893 258.3229 15.08846772 22660","RA_OF_ASC_NODE":"128.4059","SEMIMAJOR_AXIS":"6917.860","TLE_LINE1":"1 53997U 22125AK  23058.90433003  .00000599  00000-0  55682-4 0  9998","PERIOD":"95.437","DECAY_DATE":null,"FILE":"3846812","SITE":"AFWTR","MEAN_ANOMALY":"258.3229","MEAN_MOTION_DDOT":"0.0000000000000","OBJECT_ID":"2022-125AK","MEAN_MOTION_DOT":"0.00000599","OBJECT_NAME":"STARLINK-5130","NORAD_CAT_ID":"53997","BSTAR":"0.00005568200000","REF_FRAME":"TEME","MEAN_ELEMENT_THEORY":"SGP4","CENTER_NAME":"EARTH","CLASSIFICATION_TYPE":"U","ARG_OF_PERICENTER":"101.7893","INCLINATION":"53.2210","OBJECT_TYPE":"PAYLOAD","REV_AT_EPOCH":"2266","GP_ID":"227197125","RCS_SIZE":"LARGE","PERIAPSIS":"538.928","LAUNCH_DATE":"2022-10-05"},{"FILE":"3846812","DECAY_DATE":null,"MEAN_ANOMALY":"270.3220","SITE":"AFWTR","TLE_LINE1":"1 53998U 22125AL  23058.66510483  .00053503  00000-0  33485-2 0  9998","RA_OF_ASC_NODE":"139.0293","SEMIMAJOR_AXIS":"6917.682","PERIOD":"95.433","APOAPSIS":"540.209","COUNTRY_CODE":"US","EPHEMERIS_TYPE":"0","TLE_LINE2":"2 53998  53.2143 139.0293 0000957  89.7881 270.3220 15.08904955 22492","MEAN_MOTION":"15.08904955","ELEMENT_SET_NO":"999","EPOCH":"2023-02-27T15:57:45.057312","TIME_SYSTEM":"UTC","ECCENTRICITY":"0.00009570","GP_ID":"227197375","RCS_SIZE":"LARGE","LAUNCH_DATE":"2022-10-05","PERIAPSIS":"538.885","CLASSIFICATION_TYPE":"U","OBJECT_TYPE":"PAYLOAD","REV_AT_EPOCH":"2249","INCLINATION":"53.2143","ARG_OF_PERICENTER":"89.7881","NORAD_CAT_ID":"53998","MEAN_ELEMENT_THEORY":"SGP4","CENTER_NAME":"EARTH","REF_FRAME":"TEME","BSTAR":"0.00334850000000","MEAN_MOTION_DOT":"0.00053503","MEAN_MOTION_DDOT":"0.0000000000000","OBJECT_ID":"2022-125AL","OBJECT_NAME":"STARLINK-5128"},{"PERIOD":"95.433","TLE_LINE1":"1 53999U 22125AM  23058.74513280  .00088474  00000-0  54969-2 0  9991","RA_OF_ASC_NODE":"138.8165","SEMIMAJOR_AXIS":"6917.656","MEAN_ANOMALY":"296.9458","SITE":"AFWTR","FILE":"3846812","DECAY_DATE":null,"ECCENTRICITY":"0.00019750","EPOCH":"2023-02-27T17:52:59.473920","ELEMENT_SET_NO":"999","TIME_SYSTEM":"UTC","TLE_LINE2":"2 53999  53.2144 138.8165 0001975  63.1736 296.9458 15.08913553 22508","MEAN_MOTION":"15.08913553","APOAPSIS":"540.887","EPHEMERIS_TYPE":"0","COUNTRY_CODE":"US","OBJECT_TYPE":"PAYLOAD","REV_AT_EPOCH":"2250","ARG_OF_PERICENTER":"63.1736","INCLINATION":"53.2144","CLASSIFICATION_TYPE":"U","LAUNCH_DATE":"2022-10-05","PERIAPSIS":"538.154","RCS_SIZE":"LARGE","GP_ID":"227198127","OBJECT_NAME":"STARLINK-5079","MEAN_MOTION_DOT":"0.00088474","MEAN_MOTION_DDOT":"0.0000000000000","OBJECT_ID":"2022-125AM","CENTER_NAME":"EARTH","MEAN_ELEMENT_THEORY":"SGP4","REF_FRAME":"TEME","BSTAR":"0.00549690000000","NORAD_CAT_ID":"53999"},{"OBJECT_NAME":"STARLINK-5088","OBJECT_ID":"2022-125AN","MEAN_MOTION_DDOT":"0.0000000000000","MEAN_MOTION_DOT":"0.00039953","BSTAR":"0.00251210000000","MEAN_ELEMENT_THEORY":"SGP4","REF_FRAME":"TEME","CENTER_NAME":"EARTH","NORAD_CAT_ID":"54000","ARG_OF_PERICENTER":"97.6694","INCLINATION":"53.2178","REV_AT_EPOCH":"2266","OBJECT_TYPE":"PAYLOAD","CLASSIFICATION_TYPE":"U","LAUNCH_DATE":"2022-10-05","PERIAPSIS":"539.122","RCS_SIZE":"LARGE","GP_ID":"227197878","ECCENTRICITY":"0.00007630","TIME_SYSTEM":"UTC","EPOCH":"2023-02-27T21:36:55.811808","ELEMENT_SET_NO":"999","MEAN_MOTION":"15.08871150","TLE_LINE2":"2 54000  53.2178 128.3844 0000763  97.6694 262.4385 15.08871150 22666","EPHEMERIS_TYPE":"0","COUNTRY_CODE":"US","APOAPSIS":"540.178","PERIOD":"95.436","SEMIMAJOR_AXIS":"6917.785","RA_OF_ASC_NODE":"128.3844","TLE_LINE1":"1 54000U 22125AN  23058.90064597  .00039953  00000-0  25121-2 0  9991","SITE":"AFWTR","MEAN_ANOMALY":"262.4385","DECAY_DATE":null,"FILE":"3846812"}];
